{
    "links": {
        "self": "http://www.neowsapp.com/rest/v1/neo/3711170?api_key=iIulBulltgU6a56xZRHN4H3l9WmuAYTsLGpBGhQ2"
    },
    "id": "3711170",
    "neo_reference_id": "3711170",
    "name": "(2015 DC54)",
    "designation": "2015 DC54",
    "nasa_jpl_url": "http://ssd.jpl.nasa.gov/sbdb.cgi?sstr=3711170",
    "absolute_magnitude_h": 26.1,
    "estimated_diameter": {
        "kilometers": {
            "estimated_diameter_min": 0.0160160338,
            "estimated_diameter_max": 0.0358129403
        },
        "meters": {
            "estimated_diameter_min": 16.0160337979,
            "estimated_diameter_max": 35.8129403019
        },
        "miles": {
            "estimated_diameter_min": 0.0099518989,
            "estimated_diameter_max": 0.0222531225
        },
        "feet": {
            "estimated_diameter_min": 52.5460443254,
            "estimated_diameter_max": 117.4965270602
        }
    },
    "is_potentially_hazardous_asteroid": false,
    "close_approach_data": [
        {
            "close_approach_date": "1922-12-01",
            "close_approach_date_full": "1922-Dec-01 10:52",
            "epoch_date_close_approach": -1485868080000,
            "relative_velocity": {
                "kilometers_per_second": "18.9938142203",
                "kilometers_per_hour": "68377.7311930584",
                "miles_per_hour": "42487.2630293756"
            },
            "miss_distance": {
                "astronomical": "0.3979546105",
                "lunar": "154.8043434845",
                "kilometers": "59533162.087479635",
                "miles": "36992191.570443563"
            },
            "orbiting_body": "Earth"
        },
        {
            "close_approach_date": "2015-02-15",
            "close_approach_date_full": "2015-Feb-15 20:14",
            "epoch_date_close_approach": 1424031240000,
            "relative_velocity": {
                "kilometers_per_second": "7.5191851299",
                "kilometers_per_hour": "27069.0664675585",
                "miles_per_hour": "16819.6652170227"
            },
            "miss_distance": {
                "astronomical": "0.0159033746",
                "lunar": "6.1864127194",
                "kilometers": "2379110.965972102",
                "miles": "1478311.0040629276"
            },
            "orbiting_body": "Earth"
        }
    ],
    "orbital_data": {
        "orbit_id": "6",
        "orbit_determination_date": "2017-04-06 08:35:32",
        "first_observation_date": "2015-02-19",
        "last_observation_date": "2015-02-25",
        "data_arc_in_days": 6,
        "observations_used": 42,
        "orbit_uncertainty": "7",
        "minimum_orbit_intersection": ".00736216",
        "jupiter_tisserand_invariant": "3.777",
        "epoch_osculation": "2459000.5",
        "eccentricity": ".4865882590614378",
        "semi_major_axis": "1.912275941906303",
        "inclination": "4.698285573747392",
        "ascending_node_longitude": "144.9157159286796",
        "orbital_period": "965.8824360412196",
        "perihelion_distance": ".9817849204890438",
        "perihelion_argument": "341.8328237035643",
        "aphelion_distance": "2.842766963323562",
        "perihelion_time": "2458985.437867574278",
        "mean_anomaly": "5.613900274948775",
        "mean_motion": ".3727161676896222",
        "equinox": "J2000",
        "orbit_class": {
            "orbit_class_type": "APO",
            "orbit_class_description": "Near-Earth asteroid orbits which cross the Earth’s orbit similar to that of 1862 Apollo",
            "orbit_class_range": "a (semi-major axis) > 1.0 AU; q (perihelion) < 1.017 AU"
        }
    },
    "is_sentry_object": false
}